{"type": "FeatureCollection", "features": [ {"type": "Feature", "properties": {"norad_id": 41019, "name": "GPS BIIF-11 (PRN 10)", "group": "gnss", "lat": -25.30765867496579, "lon": 20.29249457984876, "alt_km": 20231.263053795286, "timestamp": "2025-12-05T18:53:13.525205+00:00", "meta": {"OBJECT_NAME": "GPS BIIF-11 (PRN 10)", "OBJECT_ID": "2015-062A", "EPOCH": "2025-12-03T20:03:13.853664", "MEAN_MOTION": 2.0056693, "ECCENTRICITY": 0.0110571, "INCLINATION": 56.8259, "RA_OF_ASC_NODE": 38.3468, "ARG_OF_PERICENTER": 229.69, "MEAN_ANOMALY": 129.3913, "EPHEMERIS_TYPE": 0, "CLASSIFICATION_TYPE": "U", "NORAD_CAT_ID": 41019, "ELEMENT_SET_NO": 999, "REV_AT_EPOCH": 7391, "BSTAR": 0, "MEAN_MOTION_DOT": -6.5e-07, "MEAN_MOTION_DDOT": 0}, "tle": {"line1": "1 41019U 15062A   25337.83557701 -.00000065  00000+0  00000+0 0  9995", "line2": "2 41019  56.8259  38.3468 0110571 229.6900 129.3913  2.00566930 73916"}}, "geometry": {"type": "Point", "coordinates": [20.29249457984876, -25.30765867496579]}}, {"type": "Feature", "properties": {"norad_id": 41028, "name": "GSAT-15 (GAGAN/PRN 139)", "group": "gnss", "lat": 0.021385170964259206, "lon": 91.611544596881, "alt_km": 35796.520696043626, "timestamp": "2025-12-05T18:53:13.525216+00:00", "meta": {"OBJECT_NAME": "GSAT-15 (GAGAN/PRN 139)", "OBJECT_ID": "2015-065A", "EPOCH": "2025-12-05T03:18:38.681280", "MEAN_MOTION": 1.00271518, "ECCENTRICITY": 0.00030143, "INCLINATION": 0.0368, "RA_OF_ASC_NODE": 94.7348, "ARG_OF_PERICENTER": 140.4998, "MEAN_ANOMALY": 342.1285, "EPHEMERIS_TYPE": 0, "CLASSIFICATION_TYPE": "U", "NORAD_CAT_ID": 41028, "ELEMENT_SET_NO": 999, "REV_AT_EPOCH": 3685, "BSTAR": 0, "MEAN_MOTION_DOT": -2.46e-06, "MEAN_MOTION_DDOT": 0}, "tle": {"line1": "1 41028U 15065A   25339.13794770 -.00000246  00000+0  00000+0 0  9993", "line2": "2 41028   0.0368  94.7348 0003014 140.4998 342.1285  1.00271518 36854"}}, "geometry": {"type": "Point", "coordinates": [91.611544596881, 0.021385170964259206]}}, {"type": "Feature", "properties": {"norad_id": 41174, "name": "GSAT0209 (GALILEO 12)", "group": "gnss", "lat": -13.930354391646263, "lon": -63.70846333851382, "alt_km": 23230.753467735914, "timestamp": "2025-12-05T18:53:13.525230+00:00", "meta": {"OBJECT_NAME": "GSAT0209 (GALILEO 12)", "OBJECT_ID": "2015-079A", "EPOCH": "2025-12-01T22:43:10.411392", "MEAN_MOTION": 1.70474306, "ECCENTRICITY": 0.0002352, "INCLINATION": 55.7062, "RA_OF_ASC_NODE": 106.6773, "ARG_OF_PERICENTER": 357.4206, "MEAN_ANOMALY": 2.5431, "EPHEMERIS_TYPE": 0, "CLASSIFICATION_TYPE": "U", "NORAD_CAT_ID": 41174, "ELEMENT_SET_NO": 999, "REV_AT_EPOCH": 6141, "BSTAR": 0, "MEAN_MOTION_DOT": 3.5e-07, "MEAN_MOTION_DDOT": 0}, "tle": {"line1": "1 41174U 15079A   25335.94664828  .00000035  00000+0  00000+0 0  9990", "line2": "2 41174  55.7062 106.6773 0002352 357.4206   2.5431  1.70474306 61412"}}, "geometry": {"type": "Point", "coordinates": [-63.70846333851382, -13.930354391646263]}}, {"type": "Feature", "properties": {"norad_id": 41175, "name": "GSAT0208 (GALILEO 11)", "group": "gnss", "lat": 46.74361682773198, "lon": 152.99426631234618, "alt_km": 23213.146860654662, "timestamp": "2025-12-05T18:53:13.525287+00:00", "meta": {"OBJECT_NAME": "GSAT0208 (GALILEO 11)", "OBJECT_ID": "2015-079B", "EPOCH": "2025-12-03T08:09:32.138784", "MEAN_MOTION": 1.70474152, "ECCENTRICITY": 0.00019072, "INCLINATION": 55.7055, "RA_OF_ASC_NODE": 106.6362, "ARG_OF_PERICENTER": 9.6551, "MEAN_ANOMALY": 350.3047, "EPHEMERIS_TYPE": 0, "CLASSIFICATION_TYPE": "U", "NORAD_CAT_ID": 41175, "ELEMENT_SET_NO": 999, "REV_AT_EPOCH": 6185, "BSTAR": 0, "MEAN_MOTION_DOT": 2.2e-07, "MEAN_MOTION_DDOT": 0}, "tle": {"line1": "1 41175U 15079B   25337.33995531  .00000022  00000+0  00000+0 0  9990", "line2": "2 41175  55.7055 106.6362 0001907   9.6551 350.3047  1.70474152 61857"}}, "geometry": {"type": "Point", "coordinates": [152.99426631234618, 46.74361682773198]}}, {"type": "Feature", "properties": {"norad_id": 41241, "name": "IRNSS-1E", "group": "gnss", "lat": 23.444548937067854, "lon": 104.758828091068, "alt_km": 35852.565029514226, "timestamp": "2025-12-05T18:53:13.525313+00:00", "meta": {"OBJECT_NAME": "IRNSS-1E", "OBJECT_ID": "2016-003A", "EPOCH": "2025-12-04T15:58:06.723840", "MEAN_MOTION": 1.00277274, "ECCENTRICITY": 0.00219087, "INCLINATION": 32.808, "RA_OF_ASC_NODE": 62.5711, "ARG_OF_PERICENTER": 186.7254, "MEAN_ANOMALY": 175.6944, "EPHEMERIS_TYPE": 0, "CLASSIFICATION_TYPE": "U", "NORAD_CAT_ID": 41241, "ELEMENT_SET_NO": 999, "REV_AT_EPOCH": 3613, "BSTAR": 0, "MEAN_MOTION_DOT": -3.12e-06, "MEAN_MOTION_DDOT": 0}, "tle": {"line1": "1 41241U 16003A   25338.66535560 -.00000312  00000+0  00000+0 0  9994", "line2": "2 41241  32.8080  62.5711 0021908 186.7254 175.6944  1.00277274 36139"}}, "geometry": {"type": "Point", "coordinates": [104.758828091068, 23.444548937067854]}}, {"type": "Feature", "properties": {"norad_id": 41328, "name": "GPS BIIF-12 (PRN 32)", "group": "gnss", "lat": -55.40326055728928, "lon": 5.538602790087776, "alt_km": 19968.795625063172, "timestamp": "2025-12-05T18:53:13.525338+00:00", "meta": {"OBJECT_NAME": "GPS BIIF-12 (PRN 32)", "OBJECT_ID": "2016-007A", "EPOCH": "2025-12-03T22:01:44.177088", "MEAN_MOTION": 2.00561076, "ECCENTRICITY": 0.0091739, "INCLINATION": 55.4011, "RA_OF_ASC_NODE": 97.2072, "ARG_OF_PERICENTER": 243.359, "MEAN_ANOMALY": 115.6713, "EPHEMERIS_TYPE": 0, "CLASSIFICATION_TYPE": "U", "NORAD_CAT_ID": 41328, "ELEMENT_SET_NO": 999, "REV_AT_EPOCH": 7192, "BSTAR": 0, "MEAN_MOTION_DOT": -7e-08, "MEAN_MOTION_DDOT": 0}, "tle": {"line1": "1 41328U 16007A   25337.91787242 -.00000007  00000+0  00000+0 0  9998", "line2": "2 41328  55.4011  97.2072 0091739 243.3590 115.6713  2.00561076 71928"}}, "geometry": {"type": "Point", "coordinates": [5.538602790087776, -55.40326055728928]}}, {"type": "Feature", "properties": {"norad_id": 41330, "name": "COSMOS 2514 (751)", "group": "gnss", "lat": -48.00640988811029, "lon": 170.6324424169445, "alt_km": 19104.98209126417, "timestamp": "2025-12-05T18:53:13.525358+00:00", "meta": {"OBJECT_NAME": "COSMOS 2514 (751)", "OBJECT_ID": "2016-008A", "EPOCH": "2025-12-05T00:16:21.718272", "MEAN_MOTION": 2.13102448, "ECCENTRICITY": 0.00123991, "INCLINATION": 65.1382, "RA_OF_ASC_NODE": 319.6687, "ARG_OF_PERICENTER": 219.9384, "MEAN_ANOMALY": 139.9663, "EPHEMERIS_TYPE": 0, "CLASSIFICATION_TYPE": "U", "NORAD_CAT_ID": 41330, "ELEMENT_SET_NO": 999, "REV_AT_EPOCH": 7648, "BSTAR": 0, "MEAN_MOTION_DOT": -4.7e-07, "MEAN_MOTION_DDOT": 0}, "tle": {"line1": "1 41330U 16008A   25339.01136248 -.00000047  00000+0  00000+0 0  9993", "line2": "2 41330  65.1382 319.6687 0012399 219.9384 139.9663  2.13102448 76485"}}, "geometry": {"type": "Point", "coordinates": [170.6324424169445, -48.00640988811029]}}, {"type": "Feature", "properties": {"norad_id": 41384, "name": "IRNSS-1F", "group": "gnss", "lat": -4.567181111732909, "lon": 30.81887319292069, "alt_km": 35819.43159930168, "timestamp": "2025-12-05T18:53:13.525377+00:00", "meta": {"OBJECT_NAME": "IRNSS-1F", "OBJECT_ID": "2016-015A", "EPOCH": "2025-12-04T13:52:48.727200", "MEAN_MOTION": 1.00268262, "ECCENTRICITY": 0.0022409, "INCLINATION": 4.8599, "RA_OF_ASC_NODE": 101.5018, "ARG_OF_PERICENTER": 179.6667, "MEAN_ANOMALY": 33.0691, "EPHEMERIS_TYPE": 0, "CLASSIFICATION_TYPE": "U", "NORAD_CAT_ID": 41384, "ELEMENT_SET_NO": 999, "REV_AT_EPOCH": 3571, "BSTAR": 0, "MEAN_MOTION_DOT": 1.71e-06, "MEAN_MOTION_DDOT": 0}, "tle": {"line1": "1 41384U 16015A   25338.57834175  .00000171  00000+0  00000+0 0  9991", "line2": "2 41384   4.8599 101.5018 0022409 179.6667  33.0691  1.00268262 35717"}}, "geometry": {"type": "Point", "coordinates": [30.81887319292069, -4.567181111732909]}}, {"type": "Feature", "properties": {"norad_id": 41434, "name": "BEIDOU-2 IGSO-6 (C13)", "group": "gnss", "lat": 41.4175775745613, "lon": 70.65598212021172, "alt_km": 36036.53696776533, "timestamp": "2025-12-05T18:53:13.525396+00:00", "meta": {"OBJECT_NAME": "BEIDOU-2 IGSO-6 (C13)", "OBJECT_ID": "2016-021A", "EPOCH": "2025-12-01T15:57:35.287200", "MEAN_MOTION": 1.00256562, "ECCENTRICITY": 0.00591323, "INCLINATION": 59.9483, "RA_OF_ASC_NODE": 40.0119, "ARG_OF_PERICENTER": 231.2834, "MEAN_ANOMALY": 130.8807, "EPHEMERIS_TYPE": 0, "CLASSIFICATION_TYPE": "U", "NORAD_CAT_ID": 41434, "ELEMENT_SET_NO": 999, "REV_AT_EPOCH": 3550, "BSTAR": 0, "MEAN_MOTION_DOT": -1.55e-06, "MEAN_MOTION_DDOT": 0}, "tle": {"line1": "1 41434U 16021A   25335.66499175 -.00000155  00000+0  00000+0 0  9991", "line2": "2 41434  59.9483  40.0119 0059132 231.2834 130.8807  1.00256562 35501"}}, "geometry": {"type": "Point", "coordinates": [70.65598212021172, 41.4175775745613]}}, {"type": "Feature", "properties": {"norad_id": 41469, "name": "IRNSS-1G", "group": "gnss", "lat": 2.0354173923347205, "lon": 127.5882366173377, "alt_km": 35777.93949637707, "timestamp": "2025-12-05T18:53:13.525415+00:00", "meta": {"OBJECT_NAME": "IRNSS-1G", "OBJECT_ID": "2016-027A", "EPOCH": "2025-12-05T05:45:04.490784", "MEAN_MOTION": 1.0025287, "ECCENTRICITY": 0.00046618, "INCLINATION": 4.7142, "RA_OF_ASC_NODE": 102.2925, "ARG_OF_PERICENTER": 337.5739, "MEAN_ANOMALY": 210.2259, "EPHEMERIS_TYPE": 0, "CLASSIFICATION_TYPE": "U", "NORAD_CAT_ID": 41469, "ELEMENT_SET_NO": 999, "REV_AT_EPOCH": 3523, "BSTAR": 0, "MEAN_MOTION_DOT": -3.26e-06, "MEAN_MOTION_DDOT": 0}, "tle": {"line1": "1 41469U 16027A   25339.23963531 -.00000326  00000+0  00000+0 0  9994", "line2": "2 41469   4.7142 102.2925 0004661 337.5739 210.2259  1.00252870 35238"}}, "geometry": {"type": "Point", "coordinates": [127.5882366173377, 2.0354173923347205]}}]}